[{"OBJECT_NAME":"GEESAT-4 02","OBJECT_ID":"2025-170B","EPOCH":"2026-03-09T22:56:42.362304","MEAN_MOTION":14.83538313,"ECCENTRICITY":0.00104864,"INCLINATION":49.9842,"RA_OF_ASC_NODE":274.4013,"ARG_OF_PERICENTER":60.1628,"MEAN_ANOMALY":300.0351,"EPHEMERIS_TYPE":0,"CLASSIFICATION_TYPE":"U","NORAD_CAT_ID":65120,"ELEMENT_SET_NO":999,"REV_AT_EPOCH":3172,"BSTAR":0.00034262722,"MEAN_MOTION_DOT":2.626e-5,"MEAN_MOTION_DDOT":0},{"OBJECT_NAME":"NOAA 16 DEB","OBJECT_ID":"2000-055DN","EPOCH":"2026-03-09T03:19:21.911520","MEAN_MOTION":14.74554385,"ECCENTRICITY":0.00321574,"INCLINATION":98.9038,"RA_OF_ASC_NODE":312.1398,"ARG_OF_PERICENTER":211.8402,"MEAN_ANOMALY":148.0861,"EPHEMERIS_TYPE":0,"CLASSIFICATION_TYPE":"U","NORAD_CAT_ID":41209,"ELEMENT_SET_NO":999,"REV_AT_EPOCH":53628,"BSTAR":0.002750537,"MEAN_MOTION_DOT":0.00018449,"MEAN_MOTION_DDOT":0}]
